TELSTAR 19V             
1 43562U 18059A   24347.51016256 -.00000265  00000+0  00000+0 0  9991
2 43562   0.0116 276.9250 0002031 286.9274 358.5012  1.00273284 23618
TELKOM 4 (MERAH PUTIH)  
1 43587U 18064A   24349.92011859 -.00000334  00000+0  00000+0 0  9992
2 43587   0.0051 341.3095 0001864 306.0419 235.9695  1.00271219 23379
TELSTAR 18V             
1 43611U 18069A   24350.05464163 -.00000285  00000+0  00000+0 0  9996
2 43611   0.0260  10.0867 0002245 248.3242 343.4488  1.00268148 23105
AZERSPACE 2 (IS-38)     
1 43632U 18074A   24349.10404150  .00000148  00000+0  00000+0 0  9996
2 43632   0.0175 357.2988 0001914 285.0464 243.4914  1.00270109 22921
HORIZONS-3E             
1 43633U 18074B   24349.62888689 -.00000020  00000+0  00000+0 0  9997
2 43633   0.0471 190.4829 0001575  74.5489 214.1584  1.00269601 22814
AEHF-4 (USA 288)        
1 43651U 18079A   24349.79627516 -.00000264  00000+0  00000+0 0  9990
2 43651   1.6552 332.7510 0049252   6.2817 324.1152  1.00270925 22780
BEIDOU-3 G1             
1 43683U 18085A   24349.83754343 -.00000269  00000+0  00000+0 0  9991
2 43683   2.6406 103.2726 0001527  70.7811 351.4958  1.00273691 22552
GSAT-29                 
1 43698U 18089A   24349.96354936  .00000095  00000+0  00000+0 0  9995
2 43698   0.0854 267.6847 0003858 336.0941 242.2665  1.00270563 22318
ES'HAIL 2               
1 43700U 18090A   24350.01299490  .00000154  00000+0  00000+0 0  9998
2 43700   0.0100 321.5114 0002590 341.0040 172.1070  1.00270982 22418
GEO-KOMPSAT-2A          
1 43823U 18100A   24347.83408360 -.00000329  00000+0  00000+0 0  9995
2 43823   0.0553 131.6039 0000293 359.6073  19.3446  1.00269501 22134
GSAT-11                 
1 43824U 18100B   24349.87530280 -.00000067  00000+0  00000+0 0  9998
2 43824   0.0146 289.4156 0001155 192.9324 350.7701  1.00271588 21986
GSAT-7A                 
1 43864U 18105A   24349.86535053  .00000036  00000+0  00000+0 0  9994
2 43864   0.0783  91.6971 0002460 170.0637 196.5527  1.00271876 21947
COSMOS 2533             
1 43867U 18107A   24348.75164362 -.00000026  00000+0  00000+0 0  9997
2 43867   0.0418  92.8273 0000721 184.0972 146.5970  1.00270163 21909
TJS-3                   
1 43874U 18110A   24349.94102081 -.00000116  00000+0  00000+0 0  9991
2 43874   1.1229  87.0527 0018093 358.8841 137.9103  1.00160803 21916
ZHONGXING-2D            
1 43920U 19001A   24349.75049384 -.00000327  00000+0  00000+0 0  9992
2 43920   0.0499 103.8465 0002206 134.5928 245.6189  1.00272820 48572
HELLAS-SAT 4 & SGS-1    
1 44034U 19007A   24350.03183748  .00000162  00000+0  00000+0 0  9997
2 44034   0.0704 129.4938 0004279  54.6208 310.5240  1.00271167 21846
GSAT-31                 
1 44035U 19007B   24350.03322757  .00000135  00000+0  00000+0 0  9993
2 44035   0.0807 268.4324 0006567 351.2770 244.3175  1.00272599 21454
NUSANTARA SATU          
1 44048U 19009A   24349.83858598 -.00000225  00000+0  00000+0 0  9993
2 44048   0.0488 142.5572 0002225  42.1908 347.1353  1.00270025 21256
ZHONGXING-6C            
1 44067U 19012A   24349.84771639 -.00000326  00000+0  00000+0 0  9991
2 44067   0.0715  84.1447 0002954 184.6118 250.8508  1.00271051 21236
WGS 10 (USA 291)        
1 44071U 19014A   24348.46378000  .00000060  00000+0  00000+0 0  9994
2 44071   0.0211 358.7223 0000523 225.8923  85.2825  1.00268964 21103
TIANLIAN 2-01           
1 44076U 19017A   24349.15743843 -.00000095  00000+0  00000+0 0  9999
2 44076   0.1578  96.9176 0003638 185.2985 294.8069  1.00270458 21097
ARABSAT-6A              
1 44186U 19021A   24348.57618948  .00000166  00000+0  00000+0 0  9996
2 44186   0.0328   1.3695 0004782 267.9728  51.3228  1.00273170 20637
BEIDOU-3 IGSO-1         
1 44204U 19023A   24343.73514140 -.00000223  00000+0  00000+0 0  9996
2 44204  57.8983  43.4038 0025030 212.8920 201.6175  1.00248996  1644
BEIDOU-2 G8             
1 44231U 19027A   24349.83841222 -.00000239  00000+0  00000+0 0  9998
2 44231   1.9273  74.7912 0005083 201.3512 254.2585  1.00271155 20575
YAMAL 601               
1 44307U 19031A   24350.03383573  .00000130  00000+0  00000+0 0  9990
2 44307   0.0158  28.0076 0002777 236.6549 240.6999  1.00269885 20409
AT&T T-16               
1 44333U 19034A   24348.43180795 -.00000102  00000+0  00000+0 0  9994
2 44333   0.0173  13.2080 0000886 132.0176 351.9780  1.00271999 20111
EUTELSAT 7C             
1 44334U 19034B   24350.08452023  .00000058  00000+0  00000+0 0  9994
2 44334   0.0709 184.2839 0003479  63.8283 233.5417  1.00270553 20622
BEIDOU-3 IGSO-2         
1 44337U 19035A   24349.90500993 -.00000061  00000+0  00000+0 0  9992
2 44337  55.1925 163.6829 0035392 196.6097 167.2712  1.00283246 20166
COSMOS 2539             
1 44457U 19048A   24350.02757978  .00000090  00000+0  00000+0 0  9992
2 44457   0.0406 109.9176 0000484 146.4266 209.7634  1.00268204 19716
EDRS-C                  
1 44475U 19049A   24349.68047160  .00000165  00000+0  00000+0 0  9991
2 44475   0.0786 251.9411 0000743 331.4967 136.5628  1.00269092 19692
INTELSAT 39 (IS-39)     
1 44476U 19049B   24349.16299281  .00000045  00000+0  00000+0 0  9995
2 44476   0.0172 343.3891 0000447 200.1581  20.4037  1.00270169 19608
AMOS-17                 
1 44479U 19050A   24349.85396507  .00000119  00000+0  00000+0 0  9997
2 44479   0.0104 334.2649 0002359 279.1080 155.0616  1.00272461 19672
AEHF-5 (USA 292)        
1 44481U 19051A   24349.75625376 -.00000221  00000+0  00000+0 0  9994
2 44481   2.3399 310.6723 0058176   9.9157 125.6248  1.00272304 19758
EUTELSAT 5 WEST B       
1 44624U 19067A   24349.59422156 -.00000032  00000+0  00000+0 0  9993
2 44624   0.0618   1.6625 0003612 261.7002  29.3043  1.00271436 18922
MEV-1                   
1 44625U 19067B   24348.10188199 -.00000188  00000+0  00000+0 0  9998
2 44625   0.0445  90.2877 0001717 214.5425 146.6283  1.00271003 18797
TJS-4                   
1 44637U 19070A   24349.89778080 -.00000160  00000+0  00000+0 0  9996
2 44637   0.0622  60.0498 0001649 238.2980 192.3963  1.00269115 18967
BEIDOU-3 IGSO-3         
1 44709U 19073A   24348.24559876 -.00000224  00000+0  00000+0 0  9998
2 44709  55.7478 286.8265 0041581 184.9987 174.9197  1.00302429 18912
TIBA-1                  
1 44800U 19080A   24349.84216470  .00000166  00000+0  00000+0 0  9999
2 44800   0.0521 359.2195 0002373 261.1587 162.2842  1.00269979 18552
INMARSAT GX5            
1 44801U 19080B   24349.73472965  .00000085  00000+0  00000+0 0  9991
2 44801   0.0478  36.4267 0002551 230.3614  92.5791  1.00271470  1284
JCSAT-18 (KACIFIC 1)    
1 44868U 19091A   24350.11507677 -.00000192  00000+0  00000+0 0  9999
2 44868   0.0110 286.8047 0000645 317.8137  31.0567  1.00268384 18580
ELEKTRO-L 3             
1 44903U 19095A   24350.03922233 -.00000087  00000+0  00000+0 0  9996
2 44903   0.0147 202.2758 0002313  79.0543 253.0195  1.00269986 18181
SHIJIAN-20 (SJ-20)      
1 44910U 19097A   24349.87440351 -.00000062  00000+0  00000+0 0  9995
2 44910   3.5074  81.8008 0008773 157.8294 232.1820  1.00275094 18190
TJS-5                   
1 44978U 20002A   24349.92011851 -.00000333  00000+0  00000+0 0  9993
2 44978   0.2457  92.2787 0006452 133.5736 296.9612  1.00271289 18196
GSAT-30                 
1 45026U 20005A   24350.04061241 -.00000155  00000+0  00000+0 0  9996
2 45026   0.0413 103.7057 0001789 123.2643 314.8666  1.00270146 18022
EUTELSAT KONNECT        
1 45027U 20005B   24350.02549519  .00000059  00000+0  00000+0 0  9996
2 45027   0.0638  92.7262 0000661 193.7455 174.0774  1.00270203 18815
JCSAT-17                
1 45245U 20013A   24349.83676149 -.00000308  00000+0  00000+0 0  9992
2 45245   5.5034 351.5384 0003843 280.3190 249.3756  1.00270295 17728
GEO-KOMPSAT-2B          
1 45246U 20013B   24349.62080699 -.00000333  00000+0  00000+0 0  9997
2 45246   0.0136 265.6904 0002458 357.7524 172.0949  1.00272110 17764
BEIDOU-3 G2             
1 45344U 20017A   24349.87941718 -.00000134  00000+0  00000+0 0  9994
2 45344   2.5684  35.8224 0004712 226.6612 218.1718  1.00270855 17756
AEHF-6 (USA 298)        
1 45465U 20022B   24349.83693525 -.00000286  00000+0  00000+0 0  9998
2 45465   3.7984 298.2289 0048481   3.6702 221.1018  1.00267095 17508
BEIDOU-3 G3             
1 45807U 20040A   24349.89985765 -.00000345  00000+0  00000+0 0  9990
2 45807   1.1378  57.5809 0003236 299.1660 161.7325  1.00276421 16563
APSTAR-6D               
1 45863U 20045A   24350.04123771 -.00000308  00000+0  00000+0 0  9996
2 45863   0.0334 248.2935 0004116   4.1260 340.6150  1.00269749 16347
KOREASAT 116            
1 45920U 20048A   24350.07827255 -.00000353  00000+0  00000+0 0  9994
2 45920   0.0124 352.4703 0001239 272.6724 323.4735  1.00270568 16124
EXPRESS 103             
1 45985U 20053A   24350.04321883 -.00000271  00000+0  00000+0 0  9993
2 45985   0.0166 319.3136 0000431 212.9863  23.9568  1.00272122 16132
EXPRESS 80              
1 45986U 20053B   24349.54533151 -.00000126  00000+0  00000+0 0  9999
2 45986   0.0215 304.7209 0000930 192.8494 222.4439  1.00277589 16132
BSAT-4B                 
1 46112U 20056A   24349.97777132 -.00000340  00000+0  00000+0 0  9998
2 46112   0.0645 138.9659 0001656  61.9729 345.0313  1.00267575 15899
MEV-2                   
1 46113U 20056B   24349.60702380  .00000000  00000+0  00000+0 0  9994
2 46113   0.0181  13.4811 0001112 286.6185   1.2373  1.00270065 16695
GALAXY 30 (G-30)        
1 46114U 20056C   24349.49215971  .00000047  00000+0  00000+0 0  9998
2 46114   0.0191   0.3142 0002432 263.6953 231.8271  1.00272197 15890
GAOFEN-13 01            
1 46610U 20071A   24348.54666404 -.00000350  00000+0  00000+0 0  9990
2 46610   0.1270  77.5134 0017003 123.3674 196.5069  1.00265354 15393
TIANTONG-1 2            
1 46916U 20082A   24350.04893924 -.00000344  00000+0  00000+0 0  9991
2 46916   1.9149 295.3439 0004606 347.6214 303.7905  1.00269734 15140
